QIANFAN-97              
1 66039U 25233G   26200.07473808  .00000026  00000+0  22440-4 0  9999
2 66039  88.9986  39.9627 0002071  94.0028 266.1360 13.51015895 37498
QIANFAN-98              
1 66040U 25233H   26200.08294488  .00000009  00000+0 -50142-5 0  9990
2 66040  88.9975  39.6892 0002398  81.6677 278.4746 13.51015641 37632
QIANFAN-99              
1 66041U 25233J   26200.08704593  .00000011  00000+0 -19627-5 0  9990
2 66041  88.9987  39.9655 0002359  86.6919 273.4502 13.51015705 37497
QIANFAN-100             
1 66042U 25233K   26200.07876873  .00000012  00000+0 -12979-6 0  9996
2 66042  88.9997  39.8969 0002046  94.0540 266.0845 13.51015756 37542
QIANFAN-101             
1 66043U 25233L   26200.27387572  .00000155  00000+0  57885-4 0  9992
2 66043  88.9984  36.8818 0016819  45.6342 314.6227 14.26823785 39205
QIANFAN-102             
1 66044U 25233M   26200.09941715  .00000021  00000+0  14045-4 0  9991
2 66044  88.9984  39.8732 0002165  89.6649 270.4750 13.51015593 37543
QIANFAN-103             
1 66045U 25233N   26200.25164769  .00000027  00000+0  22910-4 0  9992
2 66045  88.9987  39.9538 0002057  94.6558 265.4828 13.51016539 37515
QIANFAN-104             
1 66046U 25233P   26200.03370508  .00000021  00000+0  13323-4 0  9991
2 66046  88.9991  39.8795 0002094  87.4335 272.7056 13.51022026 37533
QIANFAN-105             
1 66047U 25233Q   26200.26414379  .00000022  00000+0  15989-4 0  9993
2 66047  89.0004  39.7033 0002189  92.5401 267.6001 13.51021215 37678
QIANFAN-106             
1 66048U 25233R   26200.11179761  .00000018  00000+0  89163-5 0  9992
2 66048  88.9973  39.9218 0002349  83.6182 276.5236 13.51015584 37495
QIANFAN-107             
1 66049U 25233S   26200.26813597  .00000014  00000+0  31569-5 0  9994
2 66049  88.9989  39.9435 0002053  93.6280 266.5106 13.51015068 37522
QIANFAN-108             
1 66050U 25233T   26200.27223050  .00000015  00000+0  45378-5 0  9990
2 66050  88.9982  39.9284 0002305  84.1741 275.9673 13.51016281 37527
QIANFAN-109             
1 68636U 26075A   26200.28635093  .00000105  00000+0  14422-3 0  9996
2 68636  88.9918 317.7351 0002391 115.2096 244.9303 13.51024623 14120
QIANFAN-110             
1 68637U 26075B   26200.29457558  .00000109  00000+0  15006-3 0  9999
2 68637  88.9918 317.7558 0002053 104.4579 255.6800 13.51016275 14126
QIANFAN-111             
1 68638U 26075C   26200.20813459  .00000107  00000+0  14658-3 0  9997
2 68638  88.9917 317.7240 0002022 103.5103 256.6274 13.51023097 14130
QIANFAN-112             
1 68639U 26075D   26200.24505736  .00000111  00000+0  15255-3 0  9997
2 68639  88.9916 317.7289 0002185 118.2186 241.9186 13.51013624 14131
