{"fetched_at":"2026-07-19T17:31:13.022Z","source":"https://celestrak.org/NORAD/elements/gp.php?GROUP=qianfan&FORMAT=JSON","constellation":"qianfan","records":[{"OBJECT_NAME":"QIANFAN-97","OBJECT_ID":"2025-233G","EPOCH":"2026-07-19T01:47:37.370112","CLASSIFICATION_TYPE":"U","MEAN_MOTION":13.51015895,"ECCENTRICITY":0.00020718,"INCLINATION":88.9986,"RA_OF_ASC_NODE":39.9627,"ARG_OF_PERICENTER":94.0028,"MEAN_ANOMALY":266.136,"EPHEMERIS_TYPE":0,"NORAD_CAT_ID":66039,"ELEMENT_SET_NO":999,"REV_AT_EPOCH":3749,"BSTAR":0.000022440103,"MEAN_MOTION_DOT":2.6e-7,"MEAN_MOTION_DDOT":0},{"OBJECT_NAME":"QIANFAN-98","OBJECT_ID":"2025-233H","EPOCH":"2026-07-19T01:59:26.437632","CLASSIFICATION_TYPE":"U","MEAN_MOTION":13.51015641,"ECCENTRICITY":0.00023983,"INCLINATION":88.9975,"RA_OF_ASC_NODE":39.6892,"ARG_OF_PERICENTER":81.6677,"MEAN_ANOMALY":278.4746,"EPHEMERIS_TYPE":0,"NORAD_CAT_ID":66040,"ELEMENT_SET_NO":999,"REV_AT_EPOCH":3763,"BSTAR":-0.000005014175,"MEAN_MOTION_DOT":9e-8,"MEAN_MOTION_DDOT":0},{"OBJECT_NAME":"QIANFAN-99","OBJECT_ID":"2025-233J","EPOCH":"2026-07-19T02:05:20.768352","CLASSIFICATION_TYPE":"U","MEAN_MOTION":13.51015705,"ECCENTRICITY":0.00023599,"INCLINATION":88.9987,"RA_OF_ASC_NODE":39.9655,"ARG_OF_PERICENTER":86.6919,"MEAN_ANOMALY":273.4502,"EPHEMERIS_TYPE":0,"NORAD_CAT_ID":66041,"ELEMENT_SET_NO":999,"REV_AT_EPOCH":3749,"BSTAR":-0.000001962682,"MEAN_MOTION_DOT":1.1e-7,"MEAN_MOTION_DDOT":0},{"OBJECT_NAME":"QIANFAN-100","OBJECT_ID":"2025-233K","EPOCH":"2026-07-19T01:53:25.618272","CLASSIFICATION_TYPE":"U","MEAN_MOTION":13.51015756,"ECCENTRICITY":0.00020467,"INCLINATION":88.9997,"RA_OF_ASC_NODE":39.8969,"ARG_OF_PERICENTER":94.054,"MEAN_ANOMALY":266.0845,"EPHEMERIS_TYPE":0,"NORAD_CAT_ID":66042,"ELEMENT_SET_NO":999,"REV_AT_EPOCH":3754,"BSTAR":-1.29792e-7,"MEAN_MOTION_DOT":1.2e-7,"MEAN_MOTION_DDOT":0},{"OBJECT_NAME":"QIANFAN-101","OBJECT_ID":"2025-233L","EPOCH":"2026-07-19T06:34:22.862208","CLASSIFICATION_TYPE":"U","MEAN_MOTION":14.26823785,"ECCENTRICITY":0.00168192,"INCLINATION":88.9984,"RA_OF_ASC_NODE":36.8818,"ARG_OF_PERICENTER":45.6342,"MEAN_ANOMALY":314.6227,"EPHEMERIS_TYPE":0,"NORAD_CAT_ID":66043,"ELEMENT_SET_NO":999,"REV_AT_EPOCH":3920,"BSTAR":0.0000578854,"MEAN_MOTION_DOT":0.00000155,"MEAN_MOTION_DDOT":0},{"OBJECT_NAME":"QIANFAN-102","OBJECT_ID":"2025-233M","EPOCH":"2026-07-19T02:23:09.641760","CLASSIFICATION_TYPE":"U","MEAN_MOTION":13.51015593,"ECCENTRICITY":0.00021655,"INCLINATION":88.9984,"RA_OF_ASC_NODE":39.8732,"ARG_OF_PERICENTER":89.6649,"MEAN_ANOMALY":270.475,"EPHEMERIS_TYPE":0,"NORAD_CAT_ID":66044,"ELEMENT_SET_NO":999,"REV_AT_EPOCH":3754,"BSTAR":0.000014044604,"MEAN_MOTION_DOT":2.1e-7,"MEAN_MOTION_DDOT":0},{"OBJECT_NAME":"QIANFAN-103","OBJECT_ID":"2025-233N","EPOCH":"2026-07-19T06:02:22.360416","CLASSIFICATION_TYPE":"U","MEAN_MOTION":13.51016539,"ECCENTRICITY":0.00020576,"INCLINATION":88.9987,"RA_OF_ASC_NODE":39.9538,"ARG_OF_PERICENTER":94.6558,"MEAN_ANOMALY":265.4828,"EPHEMERIS_TYPE":0,"NORAD_CAT_ID":66045,"ELEMENT_SET_NO":999,"REV_AT_EPOCH":3751,"BSTAR":0.000022910073,"MEAN_MOTION_DOT":2.7e-7,"MEAN_MOTION_DDOT":0},{"OBJECT_NAME":"QIANFAN-104","OBJECT_ID":"2025-233P","EPOCH":"2026-07-19T00:48:32.118912","CLASSIFICATION_TYPE":"U","MEAN_MOTION":13.51022026,"ECCENTRICITY":0.00020943,"INCLINATION":88.9991,"RA_OF_ASC_NODE":39.8795,"ARG_OF_PERICENTER":87.4335,"MEAN_ANOMALY":272.7056,"EPHEMERIS_TYPE":0,"NORAD_CAT_ID":66046,"ELEMENT_SET_NO":999,"REV_AT_EPOCH":3753,"BSTAR":0.000013322756,"MEAN_MOTION_DOT":2.1e-7,"MEAN_MOTION_DDOT":0},{"OBJECT_NAME":"QIANFAN-105","OBJECT_ID":"2025-233Q","EPOCH":"2026-07-19T06:20:22.023456","CLASSIFICATION_TYPE":"U","MEAN_MOTION":13.51021215,"ECCENTRICITY":0.00021899,"INCLINATION":89.0004,"RA_OF_ASC_NODE":39.7033,"ARG_OF_PERICENTER":92.5401,"MEAN_ANOMALY":267.6001,"EPHEMERIS_TYPE":0,"NORAD_CAT_ID":66047,"ELEMENT_SET_NO":999,"REV_AT_EPOCH":3767,"BSTAR":0.00001598891,"MEAN_MOTION_DOT":2.2e-7,"MEAN_MOTION_DDOT":0},{"OBJECT_NAME":"QIANFAN-106","OBJECT_ID":"2025-233R","EPOCH":"2026-07-19T02:40:59.313504","CLASSIFICATION_TYPE":"U","MEAN_MOTION":13.51015584,"ECCENTRICITY":0.00023495,"INCLINATION":88.9973,"RA_OF_ASC_NODE":39.9218,"ARG_OF_PERICENTER":83.6182,"MEAN_ANOMALY":276.5236,"EPHEMERIS_TYPE":0,"NORAD_CAT_ID":66048,"ELEMENT_SET_NO":999,"REV_AT_EPOCH":3749,"BSTAR":0.000008916284,"MEAN_MOTION_DOT":1.8e-7,"MEAN_MOTION_DDOT":0},{"OBJECT_NAME":"QIANFAN-107","OBJECT_ID":"2025-233S","EPOCH":"2026-07-19T06:26:06.947808","CLASSIFICATION_TYPE":"U","MEAN_MOTION":13.51015068,"ECCENTRICITY":0.00020536,"INCLINATION":88.9989,"RA_OF_ASC_NODE":39.9435,"ARG_OF_PERICENTER":93.628,"MEAN_ANOMALY":266.5106,"EPHEMERIS_TYPE":0,"NORAD_CAT_ID":66049,"ELEMENT_SET_NO":999,"REV_AT_EPOCH":3752,"BSTAR":0.000003156884,"MEAN_MOTION_DOT":1.4e-7,"MEAN_MOTION_DDOT":0},{"OBJECT_NAME":"QIANFAN-108","OBJECT_ID":"2025-233T","EPOCH":"2026-07-19T06:32:00.715200","CLASSIFICATION_TYPE":"U","MEAN_MOTION":13.51016281,"ECCENTRICITY":0.00023057,"INCLINATION":88.9982,"RA_OF_ASC_NODE":39.9284,"ARG_OF_PERICENTER":84.1741,"MEAN_ANOMALY":275.9673,"EPHEMERIS_TYPE":0,"NORAD_CAT_ID":66050,"ELEMENT_SET_NO":999,"REV_AT_EPOCH":3752,"BSTAR":0.000004537813,"MEAN_MOTION_DOT":1.5e-7,"MEAN_MOTION_DDOT":0},{"OBJECT_NAME":"QIANFAN-109","OBJECT_ID":"2026-075A","EPOCH":"2026-07-19T06:52:20.720352","CLASSIFICATION_TYPE":"U","MEAN_MOTION":13.51024623,"ECCENTRICITY":0.00023913,"INCLINATION":88.9918,"RA_OF_ASC_NODE":317.7351,"ARG_OF_PERICENTER":115.2096,"MEAN_ANOMALY":244.9303,"EPHEMERIS_TYPE":0,"NORAD_CAT_ID":68636,"ELEMENT_SET_NO":999,"REV_AT_EPOCH":1412,"BSTAR":0.00014421556,"MEAN_MOTION_DOT":0.00000105,"MEAN_MOTION_DDOT":0},{"OBJECT_NAME":"QIANFAN-110","OBJECT_ID":"2026-075B","EPOCH":"2026-07-19T07:04:11.330112","CLASSIFICATION_TYPE":"U","MEAN_MOTION":13.51016275,"ECCENTRICITY":0.00020534,"INCLINATION":88.9918,"RA_OF_ASC_NODE":317.7558,"ARG_OF_PERICENTER":104.4579,"MEAN_ANOMALY":255.68,"EPHEMERIS_TYPE":0,"NORAD_CAT_ID":68637,"ELEMENT_SET_NO":999,"REV_AT_EPOCH":1412,"BSTAR":0.00015006431,"MEAN_MOTION_DOT":0.00000109,"MEAN_MOTION_DDOT":0},{"OBJECT_NAME":"QIANFAN-111","OBJECT_ID":"2026-075C","EPOCH":"2026-07-19T04:59:42.828576","CLASSIFICATION_TYPE":"U","MEAN_MOTION":13.51023097,"ECCENTRICITY":0.00020227,"INCLINATION":88.9917,"RA_OF_ASC_NODE":317.724,"ARG_OF_PERICENTER":103.5103,"MEAN_ANOMALY":256.6274,"EPHEMERIS_TYPE":0,"NORAD_CAT_ID":68638,"ELEMENT_SET_NO":999,"REV_AT_EPOCH":1413,"BSTAR":0.00014658148,"MEAN_MOTION_DOT":0.00000107,"MEAN_MOTION_DDOT":0},{"OBJECT_NAME":"QIANFAN-112","OBJECT_ID":"2026-075D","EPOCH":"2026-07-19T05:52:52.955904","CLASSIFICATION_TYPE":"U","MEAN_MOTION":13.51013624,"ECCENTRICITY":0.00021852,"INCLINATION":88.9916,"RA_OF_ASC_NODE":317.7289,"ARG_OF_PERICENTER":118.2186,"MEAN_ANOMALY":241.9186,"EPHEMERIS_TYPE":0,"NORAD_CAT_ID":68639,"ELEMENT_SET_NO":999,"REV_AT_EPOCH":1413,"BSTAR":0.00015254546,"MEAN_MOTION_DOT":0.00000111,"MEAN_MOTION_DDOT":0}]}
